STARLINK-1470           
1 45772U 20038AU  26068.60892913  .00054678  00000+0  19687-2 0  9990
2 45772  53.0480 174.6971 0002444  12.8687 347.2373 15.28074860317065
STARLINK-30532          
1 58070U 23158V   26068.25529094  .00003865  00000+0  15373-3 0  9990
2 58070  43.0022  29.4830 0000765 276.0895  83.9869 15.26732748133504
